<?xml version='1.0' encoding='UTF-8'?>
<gpx version="1.1" creator="https://www.komoot.de" xmlns="http://www.topografix.com/GPX/1/1" xmlns:xsi="http://www.w3.org/2001/XMLSchema-instance" xsi:schemaLocation="http://www.topografix.com/GPX/1/1 http://www.topografix.com/GPX/1/1/gpx.xsd">
  <metadata>
    <name>z intive</name>
    <author>
      <link href="https://www.komoot.de">
        <text>komoot</text>
        <type>text/html</type>
      </link>
    </author>
  </metadata>
  <trk>
    <name>z intive</name>
    <trkseg>
      <trkpt lat="52.191169" lon="20.982295">
        <ele>107.647886</ele>
        <time>2026-03-31T09:09:57.220Z</time>
      </trkpt>
      <trkpt lat="52.191279" lon="20.981879">
        <ele>107.647886</ele>
        <time>2026-03-31T09:10:16.512Z</time>
      </trkpt>
      <trkpt lat="52.191355" lon="20.981857">
        <ele>107.647886</ele>
        <time>2026-03-31T09:10:21.938Z</time>
      </trkpt>
      <trkpt lat="52.191491" lon="20.981795">
        <ele>107.647886</ele>
        <time>2026-03-31T09:10:24.557Z</time>
      </trkpt>
      <trkpt lat="52.192819" lon="20.982219">
        <ele>107.271032</ele>
        <time>2026-03-31T09:10:48.143Z</time>
      </trkpt>
      <trkpt lat="52.192983" lon="20.982275">
        <ele>107.204565</ele>
        <time>2026-03-31T09:10:50.787Z</time>
      </trkpt>
      <trkpt lat="52.193433" lon="20.982432">
        <ele>107.022020</ele>
        <time>2026-03-31T09:10:58.200Z</time>
      </trkpt>
      <trkpt lat="52.193582" lon="20.982563">
        <ele>106.954876</ele>
        <time>2026-03-31T09:11:01.067Z</time>
      </trkpt>
      <trkpt lat="52.193663" lon="20.982653">
        <ele>106.949898</ele>
        <time>2026-03-31T09:11:02.867Z</time>
      </trkpt>
      <trkpt lat="52.194060" lon="20.982794">
        <ele>107.085822</ele>
        <time>2026-03-31T09:11:10.540Z</time>
      </trkpt>
      <trkpt lat="52.194130" lon="20.982793">
        <ele>107.109241</ele>
        <time>2026-03-31T09:11:12.123Z</time>
      </trkpt>
      <trkpt lat="52.194194" lon="20.982815">
        <ele>107.131122</ele>
        <time>2026-03-31T09:11:13.229Z</time>
      </trkpt>
      <trkpt lat="52.194247" lon="20.982832">
        <ele>107.149192</ele>
        <time>2026-03-31T09:11:14.268Z</time>
      </trkpt>
      <trkpt lat="52.194312" lon="20.982862">
        <ele>107.171791</ele>
        <time>2026-03-31T09:11:15.619Z</time>
      </trkpt>
      <trkpt lat="52.194345" lon="20.982876">
        <ele>107.183198</ele>
        <time>2026-03-31T09:11:16.131Z</time>
      </trkpt>
      <trkpt lat="52.194363" lon="20.982899">
        <ele>107.190847</ele>
        <time>2026-03-31T09:11:16.502Z</time>
      </trkpt>
      <trkpt lat="52.195739" lon="20.983367">
        <ele>107.770446</ele>
        <time>2026-03-31T09:11:47.719Z</time>
      </trkpt>
      <trkpt lat="52.195783" lon="20.983383">
        <ele>107.798727</ele>
        <time>2026-03-31T09:11:48.667Z</time>
      </trkpt>
      <trkpt lat="52.195945" lon="20.983441">
        <ele>107.902775</ele>
        <time>2026-03-31T09:11:52.507Z</time>
      </trkpt>
      <trkpt lat="52.195993" lon="20.983457">
        <ele>107.933509</ele>
        <time>2026-03-31T09:11:53.710Z</time>
      </trkpt>
      <trkpt lat="52.197088" lon="20.983825">
        <ele>108.634875</ele>
        <time>2026-03-31T09:12:18.407Z</time>
      </trkpt>
      <trkpt lat="52.197877" lon="20.984073">
        <ele>108.810712</ele>
        <time>2026-03-31T09:12:34.988Z</time>
      </trkpt>
      <trkpt lat="52.198146" lon="20.984188">
        <ele>108.864479</ele>
        <time>2026-03-31T09:12:40.520Z</time>
      </trkpt>
      <trkpt lat="52.198181" lon="20.984200">
        <ele>108.871394</ele>
        <time>2026-03-31T09:12:41.158Z</time>
      </trkpt>
      <trkpt lat="52.198208" lon="20.984209">
        <ele>108.876722</ele>
        <time>2026-03-31T09:12:41.617Z</time>
      </trkpt>
      <trkpt lat="52.198282" lon="20.984233">
        <ele>108.891310</ele>
        <time>2026-03-31T09:12:42.864Z</time>
      </trkpt>
      <trkpt lat="52.198334" lon="20.984247">
        <ele>108.901500</ele>
        <time>2026-03-31T09:12:43.801Z</time>
      </trkpt>
      <trkpt lat="52.198385" lon="20.984260">
        <ele>108.911480</ele>
        <time>2026-03-31T09:12:44.643Z</time>
      </trkpt>
      <trkpt lat="52.198407" lon="20.984267">
        <ele>108.915814</ele>
        <time>2026-03-31T09:12:45.017Z</time>
      </trkpt>
      <trkpt lat="52.198471" lon="20.984289">
        <ele>108.928460</ele>
        <time>2026-03-31T09:12:46.151Z</time>
      </trkpt>
      <trkpt lat="52.198536" lon="20.984312">
        <ele>108.941320</ele>
        <time>2026-03-31T09:12:47.274Z</time>
      </trkpt>
      <trkpt lat="52.198584" lon="20.984319">
        <ele>108.950638</ele>
        <time>2026-03-31T09:12:48.097Z</time>
      </trkpt>
      <trkpt lat="52.198607" lon="20.984338">
        <ele>108.955622</ele>
        <time>2026-03-31T09:12:48.544Z</time>
      </trkpt>
      <trkpt lat="52.198702" lon="20.984380">
        <ele>108.974653</ele>
        <time>2026-03-31T09:12:50.199Z</time>
      </trkpt>
      <trkpt lat="52.198791" lon="20.984434">
        <ele>108.993012</ele>
        <time>2026-03-31T09:12:51.865Z</time>
      </trkpt>
      <trkpt lat="52.199081" lon="20.984506">
        <ele>109.044251</ele>
        <time>2026-03-31T09:12:56.903Z</time>
      </trkpt>
      <trkpt lat="52.199348" lon="20.984606">
        <ele>109.089479</ele>
        <time>2026-03-31T09:13:01.442Z</time>
      </trkpt>
      <trkpt lat="52.200798" lon="20.985103">
        <ele>109.358777</ele>
        <time>2026-03-31T09:13:28.364Z</time>
      </trkpt>
      <trkpt lat="52.201014" lon="20.985180">
        <ele>109.431462</ele>
        <time>2026-03-31T09:13:32.525Z</time>
      </trkpt>
      <trkpt lat="52.201049" lon="20.985192">
        <ele>109.443219</ele>
        <time>2026-03-31T09:13:33.205Z</time>
      </trkpt>
      <trkpt lat="52.201245" lon="20.985254">
        <ele>109.508853</ele>
        <time>2026-03-31T09:13:37.070Z</time>
      </trkpt>
      <trkpt lat="52.201576" lon="20.985368">
        <ele>109.620066</ele>
        <time>2026-03-31T09:13:43.839Z</time>
      </trkpt>
      <trkpt lat="52.202684" lon="20.985747">
        <ele>110.001790</ele>
        <time>2026-03-31T09:14:04.055Z</time>
      </trkpt>
      <trkpt lat="52.202996" lon="20.985854">
        <ele>110.117515</ele>
        <time>2026-03-31T09:14:10.226Z</time>
      </trkpt>
      <trkpt lat="52.203275" lon="20.985950">
        <ele>110.221015</ele>
        <time>2026-03-31T09:14:15.886Z</time>
      </trkpt>
      <trkpt lat="52.204536" lon="20.986389">
        <ele>110.465965</ele>
        <time>2026-03-31T09:14:40.087Z</time>
      </trkpt>
      <trkpt lat="52.204609" lon="20.986386">
        <ele>110.448889</ele>
        <time>2026-03-31T09:14:41.245Z</time>
      </trkpt>
      <trkpt lat="52.204848" lon="20.986466">
        <ele>110.391836</ele>
        <time>2026-03-31T09:14:45.328Z</time>
      </trkpt>
      <trkpt lat="52.205015" lon="20.986520">
        <ele>110.352024</ele>
        <time>2026-03-31T09:14:48.049Z</time>
      </trkpt>
      <trkpt lat="52.205046" lon="20.986530">
        <ele>110.344635</ele>
        <time>2026-03-31T09:14:48.529Z</time>
      </trkpt>
      <trkpt lat="52.205061" lon="20.986390">
        <ele>110.324267</ele>
        <time>2026-03-31T09:14:49.981Z</time>
      </trkpt>
      <trkpt lat="52.205066" lon="20.986343">
        <ele>110.317431</ele>
        <time>2026-03-31T09:14:50.416Z</time>
      </trkpt>
      <trkpt lat="52.205072" lon="20.986291">
        <ele>110.309848</ele>
        <time>2026-03-31T09:14:50.896Z</time>
      </trkpt>
      <trkpt lat="52.205109" lon="20.986007">
        <ele>110.268238</ele>
        <time>2026-03-31T09:14:53.661Z</time>
      </trkpt>
      <trkpt lat="52.205116" lon="20.985954">
        <ele>110.260469</ele>
        <time>2026-03-31T09:14:54.199Z</time>
      </trkpt>
      <trkpt lat="52.205128" lon="20.985863">
        <ele>110.247129</ele>
        <time>2026-03-31T09:14:55.092Z</time>
      </trkpt>
      <trkpt lat="52.205150" lon="20.985797">
        <ele>110.236362</ele>
        <time>2026-03-31T09:14:55.757Z</time>
      </trkpt>
      <trkpt lat="52.205220" lon="20.985810">
        <ele>110.219887</ele>
        <time>2026-03-31T09:14:56.884Z</time>
      </trkpt>
      <trkpt lat="52.205280" lon="20.985831">
        <ele>110.205537</ele>
        <time>2026-03-31T09:14:57.773Z</time>
      </trkpt>
      <trkpt lat="52.205331" lon="20.985846">
        <ele>110.193419</ele>
        <time>2026-03-31T09:14:58.541Z</time>
      </trkpt>
      <trkpt lat="52.205569" lon="20.986020">
        <ele>110.132871</ele>
        <time>2026-03-31T09:15:02.505Z</time>
      </trkpt>
      <trkpt lat="52.209360" lon="20.987319">
        <ele>110.793278</ele>
        <time>2026-03-31T09:16:12.548Z</time>
      </trkpt>
      <trkpt lat="52.209494" lon="20.987314">
        <ele>110.865404</ele>
        <time>2026-03-31T09:16:14.789Z</time>
      </trkpt>
      <trkpt lat="52.209583" lon="20.987313">
        <ele>110.913298</ele>
        <time>2026-03-31T09:16:16.372Z</time>
      </trkpt>
      <trkpt lat="52.209952" lon="20.987441">
        <ele>111.116299</ele>
        <time>2026-03-31T09:16:23.365Z</time>
      </trkpt>
      <trkpt lat="52.210043" lon="20.987472">
        <ele>111.166323</ele>
        <time>2026-03-31T09:16:25.207Z</time>
      </trkpt>
      <trkpt lat="52.210071" lon="20.987482">
        <ele>111.181747</ele>
        <time>2026-03-31T09:16:25.723Z</time>
      </trkpt>
      <trkpt lat="52.210149" lon="20.987479">
        <ele>111.223731</ele>
        <time>2026-03-31T09:16:27.223Z</time>
      </trkpt>
      <trkpt lat="52.210222" lon="20.987506">
        <ele>111.264010</ele>
        <time>2026-03-31T09:16:28.667Z</time>
      </trkpt>
      <trkpt lat="52.210266" lon="20.987522">
        <ele>111.288268</ele>
        <time>2026-03-31T09:16:29.497Z</time>
      </trkpt>
      <trkpt lat="52.210375" lon="20.987563">
        <ele>111.348460</ele>
        <time>2026-03-31T09:16:31.721Z</time>
      </trkpt>
      <trkpt lat="52.210411" lon="20.987576">
        <ele>111.368301</ele>
        <time>2026-03-31T09:16:32.392Z</time>
      </trkpt>
      <trkpt lat="52.210483" lon="20.987602">
        <ele>111.407983</ele>
        <time>2026-03-31T09:16:33.938Z</time>
      </trkpt>
      <trkpt lat="52.210544" lon="20.987629">
        <ele>111.441994</ele>
        <time>2026-03-31T09:16:35.132Z</time>
      </trkpt>
      <trkpt lat="52.210585" lon="20.987643">
        <ele>111.464534</ele>
        <time>2026-03-31T09:16:35.964Z</time>
      </trkpt>
      <trkpt lat="52.210778" lon="20.987624">
        <ele>111.568579</ele>
        <time>2026-03-31T09:16:39.985Z</time>
      </trkpt>
      <trkpt lat="52.212490" lon="20.988227">
        <ele>113.379214</ele>
        <time>2026-03-31T09:17:20.384Z</time>
      </trkpt>
      <trkpt lat="52.213102" lon="20.988212">
        <ele>113.401205</ele>
        <time>2026-03-31T09:17:31.619Z</time>
      </trkpt>
      <trkpt lat="52.213653" lon="20.988141">
        <ele>113.272782</ele>
        <time>2026-03-31T09:17:40.597Z</time>
      </trkpt>
      <trkpt lat="52.213931" lon="20.988109">
        <ele>113.208028</ele>
        <time>2026-03-31T09:17:44.916Z</time>
      </trkpt>
      <trkpt lat="52.214105" lon="20.988134">
        <ele>113.167443</ele>
        <time>2026-03-31T09:17:47.575Z</time>
      </trkpt>
      <trkpt lat="52.215208" lon="20.988009">
        <ele>113.035478</ele>
        <time>2026-03-31T09:18:04.456Z</time>
      </trkpt>
      <trkpt lat="52.215511" lon="20.987975">
        <ele>113.012467</ele>
        <time>2026-03-31T09:18:09.501Z</time>
      </trkpt>
      <trkpt lat="52.215646" lon="20.987960">
        <ele>113.002216</ele>
        <time>2026-03-31T09:18:11.895Z</time>
      </trkpt>
      <trkpt lat="52.215885" lon="20.987963">
        <ele>112.984107</ele>
        <time>2026-03-31T09:18:16.446Z</time>
      </trkpt>
      <trkpt lat="52.216009" lon="20.987948">
        <ele>112.974687</ele>
        <time>2026-03-31T09:18:18.952Z</time>
      </trkpt>
      <trkpt lat="52.216060" lon="20.987942">
        <ele>112.970813</ele>
        <time>2026-03-31T09:18:20.066Z</time>
      </trkpt>
      <trkpt lat="52.216060" lon="20.988035">
        <ele>112.966496</ele>
        <time>2026-03-31T09:18:21.269Z</time>
      </trkpt>
      <trkpt lat="52.216057" lon="20.988140">
        <ele>112.961617</ele>
        <time>2026-03-31T09:18:22.656Z</time>
      </trkpt>
      <trkpt lat="52.216056" lon="20.988206">
        <ele>112.978205</ele>
        <time>2026-03-31T09:18:23.579Z</time>
      </trkpt>
      <trkpt lat="52.216162" lon="20.989950">
        <ele>114.346686</ele>
        <time>2026-03-31T09:18:48.475Z</time>
      </trkpt>
      <trkpt lat="52.216160" lon="20.990110">
        <ele>114.471647</ele>
        <time>2026-03-31T09:18:51.085Z</time>
      </trkpt>
      <trkpt lat="52.216138" lon="20.990193">
        <ele>114.542262</ele>
        <time>2026-03-31T09:18:52.539Z</time>
      </trkpt>
      <trkpt lat="52.216288" lon="20.990288">
        <ele>114.747320</ele>
        <time>2026-03-31T09:18:56.615Z</time>
      </trkpt>
      <trkpt lat="52.216486" lon="20.990303">
        <ele>114.999936</ele>
        <time>2026-03-31T09:19:01.323Z</time>
      </trkpt>
      <trkpt lat="52.216606" lon="20.990291">
        <ele>115.153159</ele>
        <time>2026-03-31T09:19:04.068Z</time>
      </trkpt>
      <trkpt lat="52.217145" lon="20.990207">
        <ele>115.416380</ele>
        <time>2026-03-31T09:19:15.069Z</time>
      </trkpt>
      <trkpt lat="52.217205" lon="20.990198">
        <ele>115.437734</ele>
        <time>2026-03-31T09:19:16.202Z</time>
      </trkpt>
      <trkpt lat="52.218133" lon="20.990075">
        <ele>115.767702</ele>
        <time>2026-03-31T09:19:35.211Z</time>
      </trkpt>
      <trkpt lat="52.218230" lon="20.990081">
        <ele>115.802103</ele>
        <time>2026-03-31T09:19:36.745Z</time>
      </trkpt>
      <trkpt lat="52.219020" lon="20.990132">
        <ele>115.159307</ele>
        <time>2026-03-31T09:19:48.244Z</time>
      </trkpt>
      <trkpt lat="52.219099" lon="20.990117">
        <ele>115.052620</ele>
        <time>2026-03-31T09:19:49.374Z</time>
      </trkpt>
      <trkpt lat="52.219185" lon="20.990087">
        <ele>114.934653</ele>
        <time>2026-03-31T09:19:50.664Z</time>
      </trkpt>
      <trkpt lat="52.219226" lon="20.990067">
        <ele>114.877252</ele>
        <time>2026-03-31T09:19:51.282Z</time>
      </trkpt>
      <trkpt lat="52.219299" lon="20.990030">
        <ele>114.774716</ele>
        <time>2026-03-31T09:19:52.403Z</time>
      </trkpt>
      <trkpt lat="52.219513" lon="20.989915">
        <ele>114.472495</ele>
        <time>2026-03-31T09:19:55.635Z</time>
      </trkpt>
      <trkpt lat="52.219811" lon="20.989817">
        <ele>114.064721</ele>
        <time>2026-03-31T09:19:59.848Z</time>
      </trkpt>
      <trkpt lat="52.220103" lon="20.989770">
        <ele>113.671127</ele>
        <time>2026-03-31T09:20:03.757Z</time>
      </trkpt>
      <trkpt lat="52.220358" lon="20.989790">
        <ele>113.390366</ele>
        <time>2026-03-31T09:20:07.194Z</time>
      </trkpt>
      <trkpt lat="52.220844" lon="20.989852">
        <ele>113.009035</ele>
        <time>2026-03-31T09:20:14.523Z</time>
      </trkpt>
      <trkpt lat="52.222871" lon="20.990132">
        <ele>112.319689</ele>
        <time>2026-03-31T09:20:46.935Z</time>
      </trkpt>
      <trkpt lat="52.223150" lon="20.990161">
        <ele>112.403549</ele>
        <time>2026-03-31T09:20:52.338Z</time>
      </trkpt>
      <trkpt lat="52.223361" lon="20.990140">
        <ele>112.466959</ele>
        <time>2026-03-31T09:20:56.944Z</time>
      </trkpt>
      <trkpt lat="52.223467" lon="20.990227">
        <ele>112.502548</ele>
        <time>2026-03-31T09:20:59.676Z</time>
      </trkpt>
      <trkpt lat="52.223618" lon="20.990211">
        <ele>112.547938</ele>
        <time>2026-03-31T09:21:03.248Z</time>
      </trkpt>
      <trkpt lat="52.223657" lon="20.990202">
        <ele>112.559753</ele>
        <time>2026-03-31T09:21:04.207Z</time>
      </trkpt>
      <trkpt lat="52.223754" lon="20.990161">
        <ele>112.589809</ele>
        <time>2026-03-31T09:21:06.590Z</time>
      </trkpt>
      <trkpt lat="52.223771" lon="20.990152">
        <ele>112.595170</ele>
        <time>2026-03-31T09:21:07.031Z</time>
      </trkpt>
      <trkpt lat="52.223793" lon="20.990141">
        <ele>112.602072</ele>
        <time>2026-03-31T09:21:07.576Z</time>
      </trkpt>
      <trkpt lat="52.223811" lon="20.990132">
        <ele>112.607719</ele>
        <time>2026-03-31T09:21:08.000Z</time>
      </trkpt>
      <trkpt lat="52.223829" lon="20.990123">
        <ele>112.613419</ele>
        <time>2026-03-31T09:21:08.421Z</time>
      </trkpt>
      <trkpt lat="52.223851" lon="20.990112">
        <ele>112.620410</ele>
        <time>2026-03-31T09:21:08.911Z</time>
      </trkpt>
      <trkpt lat="52.223910" lon="20.990084">
        <ele>112.639078</ele>
        <time>2026-03-31T09:21:10.274Z</time>
      </trkpt>
      <trkpt lat="52.224070" lon="20.989812">
        <ele>112.709263</ele>
        <time>2026-03-31T09:21:15.105Z</time>
      </trkpt>
      <trkpt lat="52.224154" lon="20.989766">
        <ele>112.736183</ele>
        <time>2026-03-31T09:21:16.900Z</time>
      </trkpt>
      <trkpt lat="52.224508" lon="20.989573">
        <ele>112.849578</ele>
        <time>2026-03-31T09:21:24.767Z</time>
      </trkpt>
      <trkpt lat="52.224638" lon="20.989563">
        <ele>112.889119</ele>
        <time>2026-03-31T09:21:27.456Z</time>
      </trkpt>
      <trkpt lat="52.224778" lon="20.989573">
        <ele>112.931696</ele>
        <time>2026-03-31T09:21:30.152Z</time>
      </trkpt>
      <trkpt lat="52.224923" lon="20.989535">
        <ele>112.976315</ele>
        <time>2026-03-31T09:21:32.874Z</time>
      </trkpt>
      <trkpt lat="52.224996" lon="20.989468">
        <ele>113.001760</ele>
        <time>2026-03-31T09:21:34.426Z</time>
      </trkpt>
      <trkpt lat="52.225164" lon="20.989210">
        <ele>113.071839</ele>
        <time>2026-03-31T09:21:38.228Z</time>
      </trkpt>
      <trkpt lat="52.225237" lon="20.989065">
        <ele>113.106770</ele>
        <time>2026-03-31T09:21:39.966Z</time>
      </trkpt>
      <trkpt lat="52.225250" lon="20.989050">
        <ele>113.111607</ele>
        <time>2026-03-31T09:21:40.205Z</time>
      </trkpt>
      <trkpt lat="52.225581" lon="20.988782">
        <ele>113.062616</ele>
        <time>2026-03-31T09:21:45.609Z</time>
      </trkpt>
      <trkpt lat="52.225627" lon="20.988744">
        <ele>113.041224</ele>
        <time>2026-03-31T09:21:46.348Z</time>
      </trkpt>
      <trkpt lat="52.225746" lon="20.988792">
        <ele>112.990363</ele>
        <time>2026-03-31T09:21:48.783Z</time>
      </trkpt>
      <trkpt lat="52.225842" lon="20.988790">
        <ele>112.950526</ele>
        <time>2026-03-31T09:21:50.687Z</time>
      </trkpt>
      <trkpt lat="52.226149" lon="20.988542">
        <ele>112.808399</ele>
        <time>2026-03-31T09:21:58.093Z</time>
      </trkpt>
      <trkpt lat="52.226258" lon="20.988455">
        <ele>112.758055</ele>
        <time>2026-03-31T09:22:01.031Z</time>
      </trkpt>
      <trkpt lat="52.226322" lon="20.988401">
        <ele>112.728162</ele>
        <time>2026-03-31T09:22:02.422Z</time>
      </trkpt>
      <trkpt lat="52.226619" lon="20.988171">
        <ele>112.591765</ele>
        <time>2026-03-31T09:22:08.012Z</time>
      </trkpt>
      <trkpt lat="52.226885" lon="20.987951">
        <ele>112.468037</ele>
        <time>2026-03-31T09:22:12.812Z</time>
      </trkpt>
      <trkpt lat="52.226953" lon="20.987857">
        <ele>112.431066</ele>
        <time>2026-03-31T09:22:14.254Z</time>
      </trkpt>
      <trkpt lat="52.226972" lon="20.987830">
        <ele>112.420614</ele>
        <time>2026-03-31T09:22:14.720Z</time>
      </trkpt>
      <trkpt lat="52.226993" lon="20.987809">
        <ele>112.410395</ele>
        <time>2026-03-31T09:22:15.163Z</time>
      </trkpt>
      <trkpt lat="52.227011" lon="20.987793">
        <ele>112.402240</ele>
        <time>2026-03-31T09:22:15.534Z</time>
      </trkpt>
      <trkpt lat="52.227063" lon="20.987746">
        <ele>112.378726</ele>
        <time>2026-03-31T09:22:16.512Z</time>
      </trkpt>
      <trkpt lat="52.227075" lon="20.987736">
        <ele>112.373396</ele>
        <time>2026-03-31T09:22:16.738Z</time>
      </trkpt>
      <trkpt lat="52.227107" lon="20.987709">
        <ele>112.359145</ele>
        <time>2026-03-31T09:22:17.439Z</time>
      </trkpt>
      <trkpt lat="52.227128" lon="20.987656">
        <ele>112.343849</ele>
        <time>2026-03-31T09:22:18.190Z</time>
      </trkpt>
      <trkpt lat="52.227548" lon="20.987327">
        <ele>112.159555</ele>
        <time>2026-03-31T09:22:26.141Z</time>
      </trkpt>
      <trkpt lat="52.227581" lon="20.987297">
        <ele>112.144612</ele>
        <time>2026-03-31T09:22:26.732Z</time>
      </trkpt>
      <trkpt lat="52.227657" lon="20.987228">
        <ele>112.110209</ele>
        <time>2026-03-31T09:22:28.167Z</time>
      </trkpt>
      <trkpt lat="52.227699" lon="20.987188">
        <ele>112.090972</ele>
        <time>2026-03-31T09:22:28.969Z</time>
      </trkpt>
      <trkpt lat="52.227730" lon="20.987163">
        <ele>112.077294</ele>
        <time>2026-03-31T09:22:29.495Z</time>
      </trkpt>
      <trkpt lat="52.228158" lon="20.986778">
        <ele>111.883970</ele>
        <time>2026-03-31T09:22:37.245Z</time>
      </trkpt>
      <trkpt lat="52.228185" lon="20.986756">
        <ele>111.872032</ele>
        <time>2026-03-31T09:22:37.704Z</time>
      </trkpt>
      <trkpt lat="52.228218" lon="20.986729">
        <ele>111.857429</ele>
        <time>2026-03-31T09:22:38.262Z</time>
      </trkpt>
      <trkpt lat="52.228244" lon="20.986708">
        <ele>111.845953</ele>
        <time>2026-03-31T09:22:38.694Z</time>
      </trkpt>
      <trkpt lat="52.228269" lon="20.986687">
        <ele>111.834831</ele>
        <time>2026-03-31T09:22:39.110Z</time>
      </trkpt>
      <trkpt lat="52.228304" lon="20.986658">
        <ele>111.819303</ele>
        <time>2026-03-31T09:22:39.690Z</time>
      </trkpt>
      <trkpt lat="52.229156" lon="20.985922">
        <ele>111.148035</ele>
        <time>2026-03-31T09:22:54.727Z</time>
      </trkpt>
      <trkpt lat="52.229191" lon="20.985892">
        <ele>111.114947</ele>
        <time>2026-03-31T09:22:55.302Z</time>
      </trkpt>
      <trkpt lat="52.229207" lon="20.985878">
        <ele>111.099753</ele>
        <time>2026-03-31T09:22:55.562Z</time>
      </trkpt>
      <trkpt lat="52.229665" lon="20.985497">
        <ele>110.669503</ele>
        <time>2026-03-31T09:23:03.046Z</time>
      </trkpt>
      <trkpt lat="52.229862" lon="20.985372">
        <ele>110.492596</ele>
        <time>2026-03-31T09:23:06.230Z</time>
      </trkpt>
      <trkpt lat="52.230058" lon="20.985310">
        <ele>110.325489</ele>
        <time>2026-03-31T09:23:09.296Z</time>
      </trkpt>
      <trkpt lat="52.230111" lon="20.985310">
        <ele>110.281127</ele>
        <time>2026-03-31T09:23:10.134Z</time>
      </trkpt>
      <trkpt lat="52.230170" lon="20.985297">
        <ele>110.231295</ele>
        <time>2026-03-31T09:23:11.075Z</time>
      </trkpt>
      <trkpt lat="52.230228" lon="20.985262">
        <ele>110.182015</ele>
        <time>2026-03-31T09:23:12.047Z</time>
      </trkpt>
      <trkpt lat="52.230271" lon="20.985220">
        <ele>110.148201</ele>
        <time>2026-03-31T09:23:12.827Z</time>
      </trkpt>
      <trkpt lat="52.230309" lon="20.985183">
        <ele>110.118345</ele>
        <time>2026-03-31T09:23:13.518Z</time>
      </trkpt>
      <trkpt lat="52.230421" lon="20.985084">
        <ele>110.032399</ele>
        <time>2026-03-31T09:23:15.481Z</time>
      </trkpt>
      <trkpt lat="52.230472" lon="20.985039">
        <ele>109.993280</ele>
        <time>2026-03-31T09:23:16.375Z</time>
      </trkpt>
      <trkpt lat="52.230595" lon="20.984930">
        <ele>109.898839</ele>
        <time>2026-03-31T09:23:18.525Z</time>
      </trkpt>
      <trkpt lat="52.230655" lon="20.984912">
        <ele>109.857672</ele>
        <time>2026-03-31T09:23:19.464Z</time>
      </trkpt>
      <trkpt lat="52.230730" lon="20.984889">
        <ele>109.806176</ele>
        <time>2026-03-31T09:23:20.625Z</time>
      </trkpt>
      <trkpt lat="52.230773" lon="20.984844">
        <ele>109.771710</ele>
        <time>2026-03-31T09:23:21.399Z</time>
      </trkpt>
      <trkpt lat="52.230846" lon="20.984687">
        <ele>109.690240</ele>
        <time>2026-03-31T09:23:23.172Z</time>
      </trkpt>
      <trkpt lat="52.230873" lon="20.984634">
        <ele>109.661747</ele>
        <time>2026-03-31T09:23:23.777Z</time>
      </trkpt>
      <trkpt lat="52.231052" lon="20.984378">
        <ele>109.501167</ele>
        <time>2026-03-31T09:23:27.269Z</time>
      </trkpt>
      <trkpt lat="52.231409" lon="20.984017">
        <ele>109.217796</ele>
        <time>2026-03-31T09:23:33.848Z</time>
      </trkpt>
      <trkpt lat="52.231569" lon="20.983863">
        <ele>109.092461</ele>
        <time>2026-03-31T09:23:37.037Z</time>
      </trkpt>
      <trkpt lat="52.231618" lon="20.983818">
        <ele>109.054523</ele>
        <time>2026-03-31T09:23:37.991Z</time>
      </trkpt>
      <trkpt lat="52.231662" lon="20.983777">
        <ele>109.020336</ele>
        <time>2026-03-31T09:23:38.818Z</time>
      </trkpt>
      <trkpt lat="52.231805" lon="20.983633">
        <ele>108.946856</ele>
        <time>2026-03-31T09:23:42.595Z</time>
      </trkpt>
      <trkpt lat="52.232564" lon="20.983025">
        <ele>108.694212</ele>
        <time>2026-03-31T09:23:56.098Z</time>
      </trkpt>
      <trkpt lat="52.233151" lon="20.982662">
        <ele>108.506635</ele>
        <time>2026-03-31T09:24:06.346Z</time>
      </trkpt>
      <trkpt lat="52.233201" lon="20.982650">
        <ele>108.491533</ele>
        <time>2026-03-31T09:24:07.130Z</time>
      </trkpt>
      <trkpt lat="52.233300" lon="20.982643">
        <ele>108.461920</ele>
        <time>2026-03-31T09:24:08.921Z</time>
      </trkpt>
      <trkpt lat="52.233348" lon="20.982623">
        <ele>108.447116</ele>
        <time>2026-03-31T09:24:09.688Z</time>
      </trkpt>
      <trkpt lat="52.233388" lon="20.982606">
        <ele>108.440252</ele>
        <time>2026-03-31T09:24:10.393Z</time>
      </trkpt>
      <trkpt lat="52.233457" lon="20.982565">
        <ele>108.437420</ele>
        <time>2026-03-31T09:24:11.701Z</time>
      </trkpt>
      <trkpt lat="52.233472" lon="20.982487">
        <ele>108.435488</ele>
        <time>2026-03-31T09:24:12.490Z</time>
      </trkpt>
      <trkpt lat="52.233512" lon="20.982457">
        <ele>108.433790</ele>
        <time>2026-03-31T09:24:13.273Z</time>
      </trkpt>
      <trkpt lat="52.233773" lon="20.982347">
        <ele>108.423390</ele>
        <time>2026-03-31T09:24:17.803Z</time>
      </trkpt>
      <trkpt lat="52.233978" lon="20.982204">
        <ele>108.414790</ele>
        <time>2026-03-31T09:24:21.686Z</time>
      </trkpt>
      <trkpt lat="52.234383" lon="20.981836">
        <ele>108.396909</ele>
        <time>2026-03-31T09:24:29.602Z</time>
      </trkpt>
      <trkpt lat="52.234691" lon="20.981609">
        <ele>108.383872</ele>
        <time>2026-03-31T09:24:35.580Z</time>
      </trkpt>
      <trkpt lat="52.235167" lon="20.981208">
        <ele>108.334509</ele>
        <time>2026-03-31T09:24:44.658Z</time>
      </trkpt>
      <trkpt lat="52.235492" lon="20.981017">
        <ele>108.276014</ele>
        <time>2026-03-31T09:24:50.433Z</time>
      </trkpt>
      <trkpt lat="52.235545" lon="20.980991">
        <ele>108.266642</ele>
        <time>2026-03-31T09:24:51.352Z</time>
      </trkpt>
      <trkpt lat="52.235586" lon="20.980976">
        <ele>108.259527</ele>
        <time>2026-03-31T09:24:52.061Z</time>
      </trkpt>
      <trkpt lat="52.235608" lon="20.980968">
        <ele>108.255710</ele>
        <time>2026-03-31T09:24:52.431Z</time>
      </trkpt>
      <trkpt lat="52.235627" lon="20.980963">
        <ele>108.252451</ele>
        <time>2026-03-31T09:24:52.751Z</time>
      </trkpt>
      <trkpt lat="52.235652" lon="20.980956">
        <ele>108.248155</ele>
        <time>2026-03-31T09:24:53.166Z</time>
      </trkpt>
      <trkpt lat="52.235695" lon="20.980944">
        <ele>108.240768</ele>
        <time>2026-03-31T09:24:53.897Z</time>
      </trkpt>
      <trkpt lat="52.235735" lon="20.980928">
        <ele>108.233794</ele>
        <time>2026-03-31T09:24:54.571Z</time>
      </trkpt>
      <trkpt lat="52.235778" lon="20.980905">
        <ele>108.226131</ele>
        <time>2026-03-31T09:24:55.302Z</time>
      </trkpt>
      <trkpt lat="52.236766" lon="20.980612">
        <ele>108.064854</ele>
        <time>2026-03-31T09:25:11.706Z</time>
      </trkpt>
      <trkpt lat="52.236836" lon="20.980631">
        <ele>108.062425</ele>
        <time>2026-03-31T09:25:12.897Z</time>
      </trkpt>
      <trkpt lat="52.236942" lon="20.980577">
        <ele>108.058625</ele>
        <time>2026-03-31T09:25:14.857Z</time>
      </trkpt>
      <trkpt lat="52.237017" lon="20.980546">
        <ele>108.055978</ele>
        <time>2026-03-31T09:25:16.212Z</time>
      </trkpt>
      <trkpt lat="52.237066" lon="20.980525">
        <ele>108.054244</ele>
        <time>2026-03-31T09:25:17.086Z</time>
      </trkpt>
      <trkpt lat="52.237098" lon="20.980513">
        <ele>108.053120</ele>
        <time>2026-03-31T09:25:17.641Z</time>
      </trkpt>
      <trkpt lat="52.237183" lon="20.980480">
        <ele>108.050130</ele>
        <time>2026-03-31T09:25:19.106Z</time>
      </trkpt>
      <trkpt lat="52.237198" lon="20.980474">
        <ele>108.049602</ele>
        <time>2026-03-31T09:25:19.379Z</time>
      </trkpt>
      <trkpt lat="52.237259" lon="20.980449">
        <ele>108.047450</ele>
        <time>2026-03-31T09:25:20.431Z</time>
      </trkpt>
      <trkpt lat="52.237309" lon="20.980431">
        <ele>108.045697</ele>
        <time>2026-03-31T09:25:21.271Z</time>
      </trkpt>
      <trkpt lat="52.237353" lon="20.980435">
        <ele>108.044189</ele>
        <time>2026-03-31T09:25:22.008Z</time>
      </trkpt>
      <trkpt lat="52.237449" lon="20.980433">
        <ele>108.040904</ele>
        <time>2026-03-31T09:25:23.584Z</time>
      </trkpt>
      <trkpt lat="52.238184" lon="20.980207">
        <ele>108.015308</ele>
        <time>2026-03-31T09:25:36.269Z</time>
      </trkpt>
      <trkpt lat="52.238223" lon="20.980227">
        <ele>108.013909</ele>
        <time>2026-03-31T09:25:36.982Z</time>
      </trkpt>
      <trkpt lat="52.238256" lon="20.980224">
        <ele>108.012778</ele>
        <time>2026-03-31T09:25:37.602Z</time>
      </trkpt>
      <trkpt lat="52.238329" lon="20.980195">
        <ele>108.010207</ele>
        <time>2026-03-31T09:25:38.996Z</time>
      </trkpt>
      <trkpt lat="52.238393" lon="20.980170">
        <ele>108.007955</ele>
        <time>2026-03-31T09:25:40.223Z</time>
      </trkpt>
      <trkpt lat="52.238417" lon="20.980153">
        <ele>108.007059</ele>
        <time>2026-03-31T09:25:40.729Z</time>
      </trkpt>
      <trkpt lat="52.238447" lon="20.980116">
        <ele>108.005773</ele>
        <time>2026-03-31T09:25:41.444Z</time>
      </trkpt>
      <trkpt lat="52.238469" lon="20.980103">
        <ele>108.007720</ele>
        <time>2026-03-31T09:25:41.885Z</time>
      </trkpt>
      <trkpt lat="52.239743" lon="20.979619">
        <ele>108.186480</ele>
        <time>2026-03-31T09:26:05.503Z</time>
      </trkpt>
      <trkpt lat="52.239786" lon="20.979612">
        <ele>108.192386</ele>
        <time>2026-03-31T09:26:06.287Z</time>
      </trkpt>
      <trkpt lat="52.239836" lon="20.979602">
        <ele>108.199270</ele>
        <time>2026-03-31T09:26:07.194Z</time>
      </trkpt>
      <trkpt lat="52.239902" lon="20.979577">
        <ele>108.208529</ele>
        <time>2026-03-31T09:26:08.443Z</time>
      </trkpt>
      <trkpt lat="52.239936" lon="20.979564">
        <ele>108.213301</ele>
        <time>2026-03-31T09:26:09.075Z</time>
      </trkpt>
      <trkpt lat="52.239967" lon="20.979552">
        <ele>108.217655</ele>
        <time>2026-03-31T09:26:09.636Z</time>
      </trkpt>
      <trkpt lat="52.240008" lon="20.979525">
        <ele>108.223697</ele>
        <time>2026-03-31T09:26:10.401Z</time>
      </trkpt>
      <trkpt lat="52.241773" lon="20.978833">
        <ele>107.888748</ele>
        <time>2026-03-31T09:26:40.759Z</time>
      </trkpt>
      <trkpt lat="52.241876" lon="20.978793">
        <ele>107.864948</ele>
        <time>2026-03-31T09:26:42.401Z</time>
      </trkpt>
      <trkpt lat="52.242615" lon="20.978486">
        <ele>107.534597</ele>
        <time>2026-03-31T09:26:54.015Z</time>
      </trkpt>
      <trkpt lat="52.242633" lon="20.978478">
        <ele>107.526060</ele>
        <time>2026-03-31T09:26:54.301Z</time>
      </trkpt>
      <trkpt lat="52.242652" lon="20.978469">
        <ele>107.517008</ele>
        <time>2026-03-31T09:26:54.602Z</time>
      </trkpt>
      <trkpt lat="52.242670" lon="20.978461">
        <ele>107.508471</ele>
        <time>2026-03-31T09:26:54.883Z</time>
      </trkpt>
      <trkpt lat="52.242692" lon="20.978451">
        <ele>107.498021</ele>
        <time>2026-03-31T09:26:55.212Z</time>
      </trkpt>
      <trkpt lat="52.242715" lon="20.978442">
        <ele>107.487199</ele>
        <time>2026-03-31T09:26:55.559Z</time>
      </trkpt>
      <trkpt lat="52.242814" lon="20.978427">
        <ele>107.441701</ele>
        <time>2026-03-31T09:26:57.034Z</time>
      </trkpt>
      <trkpt lat="52.244135" lon="20.977873">
        <ele>107.682579</ele>
        <time>2026-03-31T09:27:19.194Z</time>
      </trkpt>
      <trkpt lat="52.244215" lon="20.977874">
        <ele>107.799436</ele>
        <time>2026-03-31T09:27:20.992Z</time>
      </trkpt>
      <trkpt lat="52.244233" lon="20.977935">
        <ele>107.859997</ele>
        <time>2026-03-31T09:27:22.016Z</time>
      </trkpt>
      <trkpt lat="52.244259" lon="20.978016">
        <ele>107.941791</ele>
        <time>2026-03-31T09:27:23.423Z</time>
      </trkpt>
      <trkpt lat="52.244304" lon="20.978046">
        <ele>108.012787</ele>
        <time>2026-03-31T09:27:24.526Z</time>
      </trkpt>
      <trkpt lat="52.244358" lon="20.978102">
        <ele>108.106220</ele>
        <time>2026-03-31T09:27:26.118Z</time>
      </trkpt>
      <trkpt lat="52.244402" lon="20.978283">
        <ele>108.280390</ele>
        <time>2026-03-31T09:27:29.046Z</time>
      </trkpt>
      <trkpt lat="52.244475" lon="20.978560">
        <ele>108.550100</ele>
        <time>2026-03-31T09:27:33.663Z</time>
      </trkpt>
      <trkpt lat="52.244501" lon="20.978658">
        <ele>108.645621</ele>
        <time>2026-03-31T09:27:35.367Z</time>
      </trkpt>
      <trkpt lat="52.244591" lon="20.979000">
        <ele>108.978544</ele>
        <time>2026-03-31T09:27:41.856Z</time>
      </trkpt>
      <trkpt lat="52.244730" lon="20.979576">
        <ele>109.532258</ele>
        <time>2026-03-31T09:27:53.659Z</time>
      </trkpt>
      <trkpt lat="52.244875" lon="20.980221">
        <ele>110.141537</ele>
        <time>2026-03-31T09:28:05.107Z</time>
      </trkpt>
      <trkpt lat="52.244899" lon="20.980318">
        <ele>110.234117</ele>
        <time>2026-03-31T09:28:06.717Z</time>
      </trkpt>
      <trkpt lat="52.244929" lon="20.980444">
        <ele>110.353749</ele>
        <time>2026-03-31T09:28:08.866Z</time>
      </trkpt>
      <trkpt lat="52.244942" lon="20.980495">
        <ele>110.402635</ele>
        <time>2026-03-31T09:28:09.642Z</time>
      </trkpt>
      <trkpt lat="52.245021" lon="20.980835">
        <ele>110.724440</ele>
        <time>2026-03-31T09:28:15.656Z</time>
      </trkpt>
      <trkpt lat="52.245067" lon="20.981030">
        <ele>110.909361</ele>
        <time>2026-03-31T09:28:18.904Z</time>
      </trkpt>
      <trkpt lat="52.245210" lon="20.981616">
        <ele>111.467585</ele>
        <time>2026-03-31T09:28:27.894Z</time>
      </trkpt>
      <trkpt lat="52.245221" lon="20.981659">
        <ele>111.508823</ele>
        <time>2026-03-31T09:28:28.419Z</time>
      </trkpt>
      <trkpt lat="52.245422" lon="20.982487">
        <ele>112.233177</ele>
        <time>2026-03-31T09:28:39.529Z</time>
      </trkpt>
      <trkpt lat="52.245528" lon="20.982827">
        <ele>112.105870</ele>
        <time>2026-03-31T09:28:43.302Z</time>
      </trkpt>
      <trkpt lat="52.245879" lon="20.983974">
        <ele>111.678020</ele>
        <time>2026-03-31T09:28:55.707Z</time>
      </trkpt>
      <trkpt lat="52.246028" lon="20.984453">
        <ele>111.498752</ele>
        <time>2026-03-31T09:29:00.357Z</time>
      </trkpt>
      <trkpt lat="52.246197" lon="20.984998">
        <ele>111.294915</ele>
        <time>2026-03-31T09:29:05.873Z</time>
      </trkpt>
      <trkpt lat="52.246251" lon="20.985172">
        <ele>111.270475</ele>
        <time>2026-03-31T09:29:07.727Z</time>
      </trkpt>
      <trkpt lat="52.246374" lon="20.985077">
        <ele>111.270475</ele>
        <time>2026-03-31T09:29:09.830Z</time>
      </trkpt>
      <trkpt lat="52.246576" lon="20.984916">
        <ele>111.270475</ele>
        <time>2026-03-31T09:29:13.327Z</time>
      </trkpt>
      <trkpt lat="52.247034" lon="20.984537">
        <ele>111.270475</ele>
        <time>2026-03-31T09:29:21.925Z</time>
      </trkpt>
      <trkpt lat="52.247008" lon="20.984439">
        <ele>111.270475</ele>
        <time>2026-03-31T09:29:23.186Z</time>
      </trkpt>
      <trkpt lat="52.246900" lon="20.984044">
        <ele>111.270475</ele>
        <time>2026-03-31T09:29:28.805Z</time>
      </trkpt>
      <trkpt lat="52.246893" lon="20.984019">
        <ele>111.270475</ele>
        <time>2026-03-31T09:29:29.170Z</time>
      </trkpt>
      <trkpt lat="52.246864" lon="20.984040">
        <ele>111.270475</ele>
        <time>2026-03-31T09:29:30.292Z</time>
      </trkpt>
      <trkpt lat="52.246845" lon="20.983971">
        <ele>111.270475</ele>
        <time>2026-03-31T09:29:33.470Z</time>
      </trkpt>
      <trkpt lat="52.246812" lon="20.983850">
        <ele>111.270475</ele>
        <time>2026-03-31T09:29:39.148Z</time>
      </trkpt>
      <trkpt lat="52.246754" lon="20.983641">
        <ele>111.270475</ele>
        <time>2026-03-31T09:29:48.891Z</time>
      </trkpt>
      <trkpt lat="52.246702" lon="20.983616">
        <ele>111.270475</ele>
        <time>2026-03-31T09:29:52.646Z</time>
      </trkpt>
      <trkpt lat="52.246632" lon="20.983360">
        <ele>111.270475</ele>
        <time>2026-03-31T09:30:04.616Z</time>
      </trkpt>
      <trkpt lat="52.246497" lon="20.982868">
        <ele>111.270475</ele>
        <time>2026-03-31T09:30:27.542Z</time>
      </trkpt>
      <trkpt lat="52.246316" lon="20.982894">
        <ele>111.270475</ele>
        <time>2026-03-31T09:30:40.204Z</time>
      </trkpt>
    </trkseg>
  </trk>
</gpx>