<?xml version='1.0' encoding='UTF-8'?>
<gpx version="1.1" creator="https://www.komoot.de" xmlns="http://www.topografix.com/GPX/1/1" xmlns:xsi="http://www.w3.org/2001/XMLSchema-instance" xsi:schemaLocation="http://www.topografix.com/GPX/1/1 http://www.topografix.com/GPX/1/1/gpx.xsd">
  <metadata>
    <name>do intive</name>
    <author>
      <link href="https://www.komoot.de">
        <text>komoot</text>
        <type>text/html</type>
      </link>
    </author>
  </metadata>
  <trk>
    <name>do intive</name>
    <trkseg>
      <trkpt lat="52.246316" lon="20.982894">
        <ele>111.359513</ele>
        <time>2026-03-31T09:08:37.366Z</time>
      </trkpt>
      <trkpt lat="52.246497" lon="20.982868">
        <ele>111.359513</ele>
        <time>2026-03-31T09:08:50.029Z</time>
      </trkpt>
      <trkpt lat="52.246632" lon="20.983360">
        <ele>111.359513</ele>
        <time>2026-03-31T09:09:12.954Z</time>
      </trkpt>
      <trkpt lat="52.246702" lon="20.983616">
        <ele>111.359513</ele>
        <time>2026-03-31T09:09:24.924Z</time>
      </trkpt>
      <trkpt lat="52.246754" lon="20.983641">
        <ele>111.359513</ele>
        <time>2026-03-31T09:09:28.679Z</time>
      </trkpt>
      <trkpt lat="52.246812" lon="20.983850">
        <ele>111.359513</ele>
        <time>2026-03-31T09:09:38.422Z</time>
      </trkpt>
      <trkpt lat="52.246845" lon="20.983971">
        <ele>111.366480</ele>
        <time>2026-03-31T09:09:44.100Z</time>
      </trkpt>
      <trkpt lat="52.246864" lon="20.984040">
        <ele>111.371864</ele>
        <time>2026-03-31T09:09:47.279Z</time>
      </trkpt>
      <trkpt lat="52.246893" lon="20.984019">
        <ele>111.375551</ele>
        <time>2026-03-31T09:09:47.971Z</time>
      </trkpt>
      <trkpt lat="52.246900" lon="20.984044">
        <ele>111.377508</ele>
        <time>2026-03-31T09:09:48.231Z</time>
      </trkpt>
      <trkpt lat="52.247008" lon="20.984439">
        <ele>111.408294</ele>
        <time>2026-03-31T09:09:52.210Z</time>
      </trkpt>
      <trkpt lat="52.247034" lon="20.984537">
        <ele>111.415894</ele>
        <time>2026-03-31T09:09:53.258Z</time>
      </trkpt>
      <trkpt lat="52.246576" lon="20.984916">
        <ele>111.475572</ele>
        <time>2026-03-31T09:10:02.347Z</time>
      </trkpt>
      <trkpt lat="52.246374" lon="20.985077">
        <ele>111.501698</ele>
        <time>2026-03-31T09:10:06.827Z</time>
      </trkpt>
      <trkpt lat="52.246251" lon="20.985172">
        <ele>111.517512</ele>
        <time>2026-03-31T09:10:09.570Z</time>
      </trkpt>
      <trkpt lat="52.246197" lon="20.984998">
        <ele>111.531395</ele>
        <time>2026-03-31T09:10:11.951Z</time>
      </trkpt>
      <trkpt lat="52.246028" lon="20.984453">
        <ele>111.583309</ele>
        <time>2026-03-31T09:10:20.205Z</time>
      </trkpt>
      <trkpt lat="52.245879" lon="20.983974">
        <ele>111.672787</ele>
        <time>2026-03-31T09:10:28.093Z</time>
      </trkpt>
      <trkpt lat="52.245528" lon="20.982827">
        <ele>111.886341</ele>
        <time>2026-03-31T09:10:43.331Z</time>
      </trkpt>
      <trkpt lat="52.245422" lon="20.982487">
        <ele>111.949883</ele>
        <time>2026-03-31T09:10:47.705Z</time>
      </trkpt>
      <trkpt lat="52.245221" lon="20.981659">
        <ele>111.786165</ele>
        <time>2026-03-31T09:10:56.080Z</time>
      </trkpt>
      <trkpt lat="52.245210" lon="20.981616">
        <ele>111.733991</ele>
        <time>2026-03-31T09:10:56.558Z</time>
      </trkpt>
      <trkpt lat="52.245067" lon="20.981030">
        <ele>111.027733</ele>
        <time>2026-03-31T09:11:02.093Z</time>
      </trkpt>
      <trkpt lat="52.245021" lon="20.980835">
        <ele>110.793773</ele>
        <time>2026-03-31T09:11:03.854Z</time>
      </trkpt>
      <trkpt lat="52.244942" lon="20.980495">
        <ele>110.386629</ele>
        <time>2026-03-31T09:11:06.824Z</time>
      </trkpt>
      <trkpt lat="52.244929" lon="20.980444">
        <ele>110.324780</ele>
        <time>2026-03-31T09:11:07.307Z</time>
      </trkpt>
      <trkpt lat="52.244899" lon="20.980318">
        <ele>110.173423</ele>
        <time>2026-03-31T09:11:08.422Z</time>
      </trkpt>
      <trkpt lat="52.244875" lon="20.980221">
        <ele>110.056292</ele>
        <time>2026-03-31T09:11:09.305Z</time>
      </trkpt>
      <trkpt lat="52.244730" lon="20.979576">
        <ele>109.287026</ele>
        <time>2026-03-31T09:11:14.904Z</time>
      </trkpt>
      <trkpt lat="52.244591" lon="20.979000">
        <ele>108.668841</ele>
        <time>2026-03-31T09:11:19.683Z</time>
      </trkpt>
      <trkpt lat="52.244511" lon="20.978547">
        <ele>108.367019</ele>
        <time>2026-03-31T09:11:23.473Z</time>
      </trkpt>
      <trkpt lat="52.244461" lon="20.978269">
        <ele>108.181530</ele>
        <time>2026-03-31T09:11:25.927Z</time>
      </trkpt>
      <trkpt lat="52.244434" lon="20.978134">
        <ele>108.090613</ele>
        <time>2026-03-31T09:11:27.139Z</time>
      </trkpt>
      <trkpt lat="52.244382" lon="20.977863">
        <ele>107.908804</ele>
        <time>2026-03-31T09:11:29.563Z</time>
      </trkpt>
      <trkpt lat="52.244370" lon="20.977809">
        <ele>107.872028</ele>
        <time>2026-03-31T09:11:30.057Z</time>
      </trkpt>
      <trkpt lat="52.244343" lon="20.977823">
        <ele>107.842410</ele>
        <time>2026-03-31T09:11:30.457Z</time>
      </trkpt>
      <trkpt lat="52.244322" lon="20.977834">
        <ele>107.819352</ele>
        <time>2026-03-31T09:11:30.768Z</time>
      </trkpt>
      <trkpt lat="52.244297" lon="20.977846">
        <ele>107.792108</ele>
        <time>2026-03-31T09:11:31.126Z</time>
      </trkpt>
      <trkpt lat="52.244275" lon="20.977857">
        <ele>107.768052</ele>
        <time>2026-03-31T09:11:31.460Z</time>
      </trkpt>
      <trkpt lat="52.244215" lon="20.977874">
        <ele>107.704383</ele>
        <time>2026-03-31T09:11:32.354Z</time>
      </trkpt>
      <trkpt lat="52.244135" lon="20.977873">
        <ele>107.620737</ele>
        <time>2026-03-31T09:11:33.533Z</time>
      </trkpt>
      <trkpt lat="52.242814" lon="20.978427">
        <ele>107.286777</ele>
        <time>2026-03-31T09:11:59.835Z</time>
      </trkpt>
      <trkpt lat="52.242715" lon="20.978442">
        <ele>107.346480</ele>
        <time>2026-03-31T09:12:02.012Z</time>
      </trkpt>
      <trkpt lat="52.242692" lon="20.978451">
        <ele>107.360682</ele>
        <time>2026-03-31T09:12:02.542Z</time>
      </trkpt>
      <trkpt lat="52.242670" lon="20.978461">
        <ele>107.374395</ele>
        <time>2026-03-31T09:12:03.044Z</time>
      </trkpt>
      <trkpt lat="52.242652" lon="20.978469">
        <ele>107.385596</ele>
        <time>2026-03-31T09:12:03.462Z</time>
      </trkpt>
      <trkpt lat="52.242633" lon="20.978478">
        <ele>107.397476</ele>
        <time>2026-03-31T09:12:03.892Z</time>
      </trkpt>
      <trkpt lat="52.242615" lon="20.978486">
        <ele>107.408678</ele>
        <time>2026-03-31T09:12:04.281Z</time>
      </trkpt>
      <trkpt lat="52.241876" lon="20.978793">
        <ele>107.866567</ele>
        <time>2026-03-31T09:12:20.069Z</time>
      </trkpt>
      <trkpt lat="52.241773" lon="20.978833">
        <ele>107.930142</ele>
        <time>2026-03-31T09:12:22.152Z</time>
      </trkpt>
      <trkpt lat="52.240008" lon="20.979525">
        <ele>108.241407</ele>
        <time>2026-03-31T09:12:54.315Z</time>
      </trkpt>
      <trkpt lat="52.239967" lon="20.979552">
        <ele>108.248297</ele>
        <time>2026-03-31T09:12:55.075Z</time>
      </trkpt>
      <trkpt lat="52.239936" lon="20.979564">
        <ele>108.244340</ele>
        <time>2026-03-31T09:12:55.599Z</time>
      </trkpt>
      <trkpt lat="52.239902" lon="20.979577">
        <ele>108.238952</ele>
        <time>2026-03-31T09:12:56.183Z</time>
      </trkpt>
      <trkpt lat="52.239836" lon="20.979602">
        <ele>108.228497</ele>
        <time>2026-03-31T09:12:57.282Z</time>
      </trkpt>
      <trkpt lat="52.239786" lon="20.979612">
        <ele>108.220724</ele>
        <time>2026-03-31T09:12:58.119Z</time>
      </trkpt>
      <trkpt lat="52.239743" lon="20.979619">
        <ele>108.214056</ele>
        <time>2026-03-31T09:12:58.828Z</time>
      </trkpt>
      <trkpt lat="52.238469" lon="20.980103">
        <ele>108.012223</ele>
        <time>2026-03-31T09:13:20.430Z</time>
      </trkpt>
      <trkpt lat="52.238447" lon="20.980116">
        <ele>108.008613</ele>
        <time>2026-03-31T09:13:20.813Z</time>
      </trkpt>
      <trkpt lat="52.238417" lon="20.980153">
        <ele>108.002812</ele>
        <time>2026-03-31T09:13:21.405Z</time>
      </trkpt>
      <trkpt lat="52.238393" lon="20.980170">
        <ele>107.998775</ele>
        <time>2026-03-31T09:13:21.819Z</time>
      </trkpt>
      <trkpt lat="52.238329" lon="20.980195">
        <ele>107.988621</ele>
        <time>2026-03-31T09:13:22.887Z</time>
      </trkpt>
      <trkpt lat="52.238256" lon="20.980224">
        <ele>107.977029</ele>
        <time>2026-03-31T09:13:24.101Z</time>
      </trkpt>
      <trkpt lat="52.238223" lon="20.980227">
        <ele>107.971929</ele>
        <time>2026-03-31T09:13:24.636Z</time>
      </trkpt>
      <trkpt lat="52.238184" lon="20.980207">
        <ele>107.974227</ele>
        <time>2026-03-31T09:13:25.338Z</time>
      </trkpt>
      <trkpt lat="52.237449" lon="20.980433">
        <ele>108.035548</ele>
        <time>2026-03-31T09:13:38.268Z</time>
      </trkpt>
      <trkpt lat="52.237353" lon="20.980435">
        <ele>108.043420</ele>
        <time>2026-03-31T09:13:40.034Z</time>
      </trkpt>
      <trkpt lat="52.237309" lon="20.980431">
        <ele>108.047033</ele>
        <time>2026-03-31T09:13:40.833Z</time>
      </trkpt>
      <trkpt lat="52.237259" lon="20.980449">
        <ele>108.051231</ele>
        <time>2026-03-31T09:13:41.748Z</time>
      </trkpt>
      <trkpt lat="52.237198" lon="20.980474">
        <ele>108.056387</ele>
        <time>2026-03-31T09:13:42.842Z</time>
      </trkpt>
      <trkpt lat="52.237183" lon="20.980480">
        <ele>108.057654</ele>
        <time>2026-03-31T09:13:43.114Z</time>
      </trkpt>
      <trkpt lat="52.237098" lon="20.980513">
        <ele>108.064817</ele>
        <time>2026-03-31T09:13:44.661Z</time>
      </trkpt>
      <trkpt lat="52.237066" lon="20.980525">
        <ele>108.067509</ele>
        <time>2026-03-31T09:13:45.246Z</time>
      </trkpt>
      <trkpt lat="52.237017" lon="20.980546">
        <ele>108.071662</ele>
        <time>2026-03-31T09:13:46.097Z</time>
      </trkpt>
      <trkpt lat="52.236942" lon="20.980577">
        <ele>108.078006</ele>
        <time>2026-03-31T09:13:47.401Z</time>
      </trkpt>
      <trkpt lat="52.236836" lon="20.980631">
        <ele>108.087110</ele>
        <time>2026-03-31T09:13:49.259Z</time>
      </trkpt>
      <trkpt lat="52.236766" lon="20.980612">
        <ele>108.092928</ele>
        <time>2026-03-31T09:13:50.501Z</time>
      </trkpt>
      <trkpt lat="52.235778" lon="20.980905">
        <ele>108.190109</ele>
        <time>2026-03-31T09:14:08.966Z</time>
      </trkpt>
      <trkpt lat="52.235735" lon="20.980928">
        <ele>108.194793</ele>
        <time>2026-03-31T09:14:09.810Z</time>
      </trkpt>
      <trkpt lat="52.235695" lon="20.980944">
        <ele>108.199056</ele>
        <time>2026-03-31T09:14:10.554Z</time>
      </trkpt>
      <trkpt lat="52.235652" lon="20.980956">
        <ele>108.203572</ele>
        <time>2026-03-31T09:14:11.359Z</time>
      </trkpt>
      <trkpt lat="52.235627" lon="20.980963">
        <ele>108.206198</ele>
        <time>2026-03-31T09:14:11.800Z</time>
      </trkpt>
      <trkpt lat="52.235608" lon="20.980968">
        <ele>108.208190</ele>
        <time>2026-03-31T09:14:12.149Z</time>
      </trkpt>
      <trkpt lat="52.235586" lon="20.980976">
        <ele>108.210523</ele>
        <time>2026-03-31T09:14:12.542Z</time>
      </trkpt>
      <trkpt lat="52.235545" lon="20.980991">
        <ele>108.214873</ele>
        <time>2026-03-31T09:14:13.292Z</time>
      </trkpt>
      <trkpt lat="52.235492" lon="20.981017">
        <ele>108.220602</ele>
        <time>2026-03-31T09:14:14.291Z</time>
      </trkpt>
      <trkpt lat="52.235167" lon="20.981208">
        <ele>108.256359</ele>
        <time>2026-03-31T09:14:20.405Z</time>
      </trkpt>
      <trkpt lat="52.234691" lon="20.981609">
        <ele>108.312626</ele>
        <time>2026-03-31T09:14:29.707Z</time>
      </trkpt>
      <trkpt lat="52.234383" lon="20.981836">
        <ele>108.351762</ele>
        <time>2026-03-31T09:14:35.158Z</time>
      </trkpt>
      <trkpt lat="52.233978" lon="20.982204">
        <ele>108.405440</ele>
        <time>2026-03-31T09:14:42.361Z</time>
      </trkpt>
      <trkpt lat="52.233773" lon="20.982347">
        <ele>108.431258</ele>
        <time>2026-03-31T09:14:46.351Z</time>
      </trkpt>
      <trkpt lat="52.233512" lon="20.982457">
        <ele>108.462476</ele>
        <time>2026-03-31T09:14:51.352Z</time>
      </trkpt>
      <trkpt lat="52.233472" lon="20.982487">
        <ele>108.467574</ele>
        <time>2026-03-31T09:14:52.262Z</time>
      </trkpt>
      <trkpt lat="52.233458" lon="20.982405">
        <ele>108.473612</ele>
        <time>2026-03-31T09:14:53.258Z</time>
      </trkpt>
      <trkpt lat="52.233446" lon="20.982335">
        <ele>108.478768</ele>
        <time>2026-03-31T09:14:54.104Z</time>
      </trkpt>
      <trkpt lat="52.233433" lon="20.982262">
        <ele>108.484160</ele>
        <time>2026-03-31T09:14:55.052Z</time>
      </trkpt>
      <trkpt lat="52.233409" lon="20.982116">
        <ele>108.494882</ele>
        <time>2026-03-31T09:14:56.901Z</time>
      </trkpt>
      <trkpt lat="52.233395" lon="20.982033">
        <ele>108.500989</ele>
        <time>2026-03-31T09:14:57.997Z</time>
      </trkpt>
      <trkpt lat="52.233372" lon="20.981891">
        <ele>108.511407</ele>
        <time>2026-03-31T09:14:59.868Z</time>
      </trkpt>
      <trkpt lat="52.233360" lon="20.981821">
        <ele>108.530681</ele>
        <time>2026-03-31T09:15:00.803Z</time>
      </trkpt>
      <trkpt lat="52.233346" lon="20.981741">
        <ele>108.561477</ele>
        <time>2026-03-31T09:15:01.937Z</time>
      </trkpt>
      <trkpt lat="52.233322" lon="20.981684">
        <ele>108.587080</ele>
        <time>2026-03-31T09:15:02.831Z</time>
      </trkpt>
      <trkpt lat="52.233269" lon="20.981686">
        <ele>108.619119</ele>
        <time>2026-03-31T09:15:03.949Z</time>
      </trkpt>
      <trkpt lat="52.233200" lon="20.981715">
        <ele>108.662179</ele>
        <time>2026-03-31T09:15:05.517Z</time>
      </trkpt>
      <trkpt lat="52.233142" lon="20.981739">
        <ele>108.698340</ele>
        <time>2026-03-31T09:15:06.776Z</time>
      </trkpt>
      <trkpt lat="52.233041" lon="20.981783">
        <ele>108.761516</ele>
        <time>2026-03-31T09:15:09.089Z</time>
      </trkpt>
      <trkpt lat="52.232997" lon="20.981803">
        <ele>108.789119</ele>
        <time>2026-03-31T09:15:10.064Z</time>
      </trkpt>
      <trkpt lat="52.232242" lon="20.982283">
        <ele>109.278779</ele>
        <time>2026-03-31T09:15:28.150Z</time>
      </trkpt>
      <trkpt lat="52.230960" lon="20.983357">
        <ele>109.463506</ele>
        <time>2026-03-31T09:15:51.750Z</time>
      </trkpt>
      <trkpt lat="52.230818" lon="20.983434">
        <ele>109.440999</ele>
        <time>2026-03-31T09:15:54.071Z</time>
      </trkpt>
      <trkpt lat="52.230634" lon="20.983429">
        <ele>109.413317</ele>
        <time>2026-03-31T09:15:56.977Z</time>
      </trkpt>
      <trkpt lat="52.230584" lon="20.983404">
        <ele>109.405451</ele>
        <time>2026-03-31T09:15:57.812Z</time>
      </trkpt>
      <trkpt lat="52.230575" lon="20.983428">
        <ele>109.402859</ele>
        <time>2026-03-31T09:15:58.098Z</time>
      </trkpt>
      <trkpt lat="52.230567" lon="20.983445">
        <ele>109.400883</ele>
        <time>2026-03-31T09:15:58.301Z</time>
      </trkpt>
      <trkpt lat="52.230494" lon="20.983511">
        <ele>109.388331</ele>
        <time>2026-03-31T09:15:59.620Z</time>
      </trkpt>
      <trkpt lat="52.230395" lon="20.983591">
        <ele>109.371715</ele>
        <time>2026-03-31T09:16:01.423Z</time>
      </trkpt>
      <trkpt lat="52.230342" lon="20.983633">
        <ele>109.362853</ele>
        <time>2026-03-31T09:16:02.401Z</time>
      </trkpt>
      <trkpt lat="52.230220" lon="20.983731">
        <ele>109.342401</ele>
        <time>2026-03-31T09:16:04.734Z</time>
      </trkpt>
      <trkpt lat="52.230167" lon="20.983774">
        <ele>109.333498</ele>
        <time>2026-03-31T09:16:05.826Z</time>
      </trkpt>
      <trkpt lat="52.230036" lon="20.983879">
        <ele>109.464820</ele>
        <time>2026-03-31T09:16:08.544Z</time>
      </trkpt>
      <trkpt lat="52.229990" lon="20.983889">
        <ele>109.516830</ele>
        <time>2026-03-31T09:16:09.378Z</time>
      </trkpt>
      <trkpt lat="52.229913" lon="20.983906">
        <ele>109.603915</ele>
        <time>2026-03-31T09:16:10.924Z</time>
      </trkpt>
      <trkpt lat="52.229851" lon="20.983943">
        <ele>109.677899</ele>
        <time>2026-03-31T09:16:12.229Z</time>
      </trkpt>
      <trkpt lat="52.229851" lon="20.984122">
        <ele>109.800776</ele>
        <time>2026-03-31T09:16:14.552Z</time>
      </trkpt>
      <trkpt lat="52.229813" lon="20.984256">
        <ele>109.902144</ele>
        <time>2026-03-31T09:16:16.494Z</time>
      </trkpt>
      <trkpt lat="52.229777" lon="20.984313">
        <ele>109.958348</ele>
        <time>2026-03-31T09:16:17.579Z</time>
      </trkpt>
      <trkpt lat="52.229597" lon="20.984510">
        <ele>110.201220</ele>
        <time>2026-03-31T09:16:22.413Z</time>
      </trkpt>
      <trkpt lat="52.229343" lon="20.984764">
        <ele>110.535051</ele>
        <time>2026-03-31T09:16:29.510Z</time>
      </trkpt>
      <trkpt lat="52.228286" lon="20.985696">
        <ele>111.800487</ele>
        <time>2026-03-31T09:16:58.727Z</time>
      </trkpt>
      <trkpt lat="52.228250" lon="20.985729">
        <ele>111.839770</ele>
        <time>2026-03-31T09:16:59.741Z</time>
      </trkpt>
      <trkpt lat="52.228223" lon="20.985753">
        <ele>111.869020</ele>
        <time>2026-03-31T09:17:00.475Z</time>
      </trkpt>
      <trkpt lat="52.227376" lon="20.986502">
        <ele>112.785547</ele>
        <time>2026-03-31T09:17:21.661Z</time>
      </trkpt>
      <trkpt lat="52.227343" lon="20.986540">
        <ele>112.823970</ele>
        <time>2026-03-31T09:17:22.394Z</time>
      </trkpt>
      <trkpt lat="52.227313" lon="20.986550">
        <ele>112.853103</ele>
        <time>2026-03-31T09:17:22.925Z</time>
      </trkpt>
      <trkpt lat="52.227292" lon="20.986531">
        <ele>112.875947</ele>
        <time>2026-03-31T09:17:23.321Z</time>
      </trkpt>
      <trkpt lat="52.227263" lon="20.986559">
        <ele>112.908004</ele>
        <time>2026-03-31T09:17:23.858Z</time>
      </trkpt>
      <trkpt lat="52.227236" lon="20.986585">
        <ele>112.937830</ele>
        <time>2026-03-31T09:17:24.381Z</time>
      </trkpt>
      <trkpt lat="52.227207" lon="20.986611">
        <ele>112.969310</ele>
        <time>2026-03-31T09:17:24.937Z</time>
      </trkpt>
      <trkpt lat="52.227192" lon="20.986729">
        <ele>113.039547</ele>
        <time>2026-03-31T09:17:26.542Z</time>
      </trkpt>
      <trkpt lat="52.227120" lon="20.986906">
        <ele>113.024978</ele>
        <time>2026-03-31T09:17:29.454Z</time>
      </trkpt>
      <trkpt lat="52.226909" lon="20.987109">
        <ele>112.955090</ele>
        <time>2026-03-31T09:17:34.852Z</time>
      </trkpt>
      <trkpt lat="52.226734" lon="20.987243">
        <ele>112.899933</ele>
        <time>2026-03-31T09:17:39.071Z</time>
      </trkpt>
      <trkpt lat="52.226730" lon="20.987243">
        <ele>112.898792</ele>
        <time>2026-03-31T09:17:39.162Z</time>
      </trkpt>
      <trkpt lat="52.226686" lon="20.987244">
        <ele>112.886235</ele>
        <time>2026-03-31T09:17:40.096Z</time>
      </trkpt>
      <trkpt lat="52.226633" lon="20.987206">
        <ele>112.869717</ele>
        <time>2026-03-31T09:17:41.358Z</time>
      </trkpt>
      <trkpt lat="52.226591" lon="20.987211">
        <ele>112.857700</ele>
        <time>2026-03-31T09:17:42.002Z</time>
      </trkpt>
      <trkpt lat="52.226535" lon="20.987219">
        <ele>112.841659</ele>
        <time>2026-03-31T09:17:42.847Z</time>
      </trkpt>
      <trkpt lat="52.226038" lon="20.987583">
        <ele>112.686218</ele>
        <time>2026-03-31T09:17:54.525Z</time>
      </trkpt>
      <trkpt lat="52.226025" lon="20.987599">
        <ele>112.681573</ele>
        <time>2026-03-31T09:17:54.859Z</time>
      </trkpt>
      <trkpt lat="52.225985" lon="20.987656">
        <ele>112.666422</ele>
        <time>2026-03-31T09:17:55.671Z</time>
      </trkpt>
      <trkpt lat="52.225954" lon="20.987701">
        <ele>112.654584</ele>
        <time>2026-03-31T09:17:56.352Z</time>
      </trkpt>
      <trkpt lat="52.225691" lon="20.987914">
        <ele>112.570808</ele>
        <time>2026-03-31T09:18:02.835Z</time>
      </trkpt>
      <trkpt lat="52.225650" lon="20.987929">
        <ele>112.558818</ele>
        <time>2026-03-31T09:18:03.552Z</time>
      </trkpt>
      <trkpt lat="52.225620" lon="20.987936">
        <ele>112.550170</ele>
        <time>2026-03-31T09:18:04.042Z</time>
      </trkpt>
      <trkpt lat="52.225587" lon="20.987950">
        <ele>112.548201</ele>
        <time>2026-03-31T09:18:04.807Z</time>
      </trkpt>
      <trkpt lat="52.225437" lon="20.988139">
        <ele>112.624694</ele>
        <time>2026-03-31T09:18:09.454Z</time>
      </trkpt>
      <trkpt lat="52.225171" lon="20.988366">
        <ele>112.745864</ele>
        <time>2026-03-31T09:18:15.670Z</time>
      </trkpt>
      <trkpt lat="52.225075" lon="20.988387">
        <ele>112.784965</ele>
        <time>2026-03-31T09:18:17.890Z</time>
      </trkpt>
      <trkpt lat="52.225036" lon="20.988368">
        <ele>112.801395</ele>
        <time>2026-03-31T09:18:19.074Z</time>
      </trkpt>
      <trkpt lat="52.224983" lon="20.988308">
        <ele>112.827432</ele>
        <time>2026-03-31T09:18:21.050Z</time>
      </trkpt>
      <trkpt lat="52.224954" lon="20.988209">
        <ele>112.854569</ele>
        <time>2026-03-31T09:18:22.544Z</time>
      </trkpt>
      <trkpt lat="52.224920" lon="20.988236">
        <ele>112.869833</ele>
        <time>2026-03-31T09:18:23.714Z</time>
      </trkpt>
      <trkpt lat="52.224892" lon="20.988257">
        <ele>112.882272</ele>
        <time>2026-03-31T09:18:24.486Z</time>
      </trkpt>
      <trkpt lat="52.224859" lon="20.988284">
        <ele>112.897173</ele>
        <time>2026-03-31T09:18:25.382Z</time>
      </trkpt>
      <trkpt lat="52.224795" lon="20.988293">
        <ele>112.923106</ele>
        <time>2026-03-31T09:18:27.273Z</time>
      </trkpt>
      <trkpt lat="52.224772" lon="20.988288">
        <ele>112.932472</ele>
        <time>2026-03-31T09:18:28.020Z</time>
      </trkpt>
      <trkpt lat="52.224744" lon="20.988321">
        <ele>112.946414</ele>
        <time>2026-03-31T09:18:29.101Z</time>
      </trkpt>
      <trkpt lat="52.224723" lon="20.988389">
        <ele>112.965246</ele>
        <time>2026-03-31T09:18:30.228Z</time>
      </trkpt>
      <trkpt lat="52.224703" lon="20.988454">
        <ele>112.983233</ele>
        <time>2026-03-31T09:18:31.332Z</time>
      </trkpt>
      <trkpt lat="52.224561" lon="20.988625">
        <ele>113.054467</ele>
        <time>2026-03-31T09:18:36.243Z</time>
      </trkpt>
      <trkpt lat="52.224517" lon="20.988675">
        <ele>113.076110</ele>
        <time>2026-03-31T09:18:37.242Z</time>
      </trkpt>
      <trkpt lat="52.224418" lon="20.988774">
        <ele>113.122978</ele>
        <time>2026-03-31T09:18:39.926Z</time>
      </trkpt>
      <trkpt lat="52.224356" lon="20.988840">
        <ele>113.152858</ele>
        <time>2026-03-31T09:18:41.098Z</time>
      </trkpt>
      <trkpt lat="52.224306" lon="20.988892">
        <ele>113.176791</ele>
        <time>2026-03-31T09:18:42.036Z</time>
      </trkpt>
      <trkpt lat="52.224265" lon="20.988945">
        <ele>113.197904</ele>
        <time>2026-03-31T09:18:43.164Z</time>
      </trkpt>
      <trkpt lat="52.224158" lon="20.989027">
        <ele>113.245622</ele>
        <time>2026-03-31T09:18:45.616Z</time>
      </trkpt>
      <trkpt lat="52.224113" lon="20.989120">
        <ele>113.266430</ele>
        <time>2026-03-31T09:18:47.112Z</time>
      </trkpt>
      <trkpt lat="52.223814" lon="20.989469">
        <ele>113.170950</ele>
        <time>2026-03-31T09:18:54.822Z</time>
      </trkpt>
      <trkpt lat="52.223761" lon="20.989531">
        <ele>113.154012</ele>
        <time>2026-03-31T09:18:56.203Z</time>
      </trkpt>
      <trkpt lat="52.223713" lon="20.989634">
        <ele>113.133419</ele>
        <time>2026-03-31T09:18:57.403Z</time>
      </trkpt>
      <trkpt lat="52.223685" lon="20.989693">
        <ele>113.121542</ele>
        <time>2026-03-31T09:18:58.110Z</time>
      </trkpt>
      <trkpt lat="52.223655" lon="20.989767">
        <ele>113.107422</ele>
        <time>2026-03-31T09:18:58.921Z</time>
      </trkpt>
      <trkpt lat="52.223654" lon="20.989853">
        <ele>113.093735</ele>
        <time>2026-03-31T09:18:59.748Z</time>
      </trkpt>
      <trkpt lat="52.223610" lon="20.989873">
        <ele>113.081870</ele>
        <time>2026-03-31T09:19:00.445Z</time>
      </trkpt>
      <trkpt lat="52.223382" lon="20.989903">
        <ele>113.022452</ele>
        <time>2026-03-31T09:19:03.897Z</time>
      </trkpt>
      <trkpt lat="52.221703" lon="20.989672">
        <ele>113.355152</ele>
        <time>2026-03-31T09:19:34.731Z</time>
      </trkpt>
      <trkpt lat="52.220610" lon="20.989507">
        <ele>114.163963</ele>
        <time>2026-03-31T09:19:58.065Z</time>
      </trkpt>
      <trkpt lat="52.220053" lon="20.989429">
        <ele>114.879460</ele>
        <time>2026-03-31T09:20:11.320Z</time>
      </trkpt>
      <trkpt lat="52.220031" lon="20.989426">
        <ele>114.907715</ele>
        <time>2026-03-31T09:20:11.816Z</time>
      </trkpt>
      <trkpt lat="52.219889" lon="20.989408">
        <ele>115.090001</ele>
        <time>2026-03-31T09:20:15.593Z</time>
      </trkpt>
      <trkpt lat="52.219699" lon="20.989386">
        <ele>115.333785</ele>
        <time>2026-03-31T09:20:20.446Z</time>
      </trkpt>
      <trkpt lat="52.219252" lon="20.989329">
        <ele>115.907622</ele>
        <time>2026-03-31T09:20:31.664Z</time>
      </trkpt>
      <trkpt lat="52.219120" lon="20.989326">
        <ele>116.076579</ele>
        <time>2026-03-31T09:20:34.546Z</time>
      </trkpt>
      <trkpt lat="52.219028" lon="20.989323">
        <ele>116.194350</ele>
        <time>2026-03-31T09:20:36.448Z</time>
      </trkpt>
      <trkpt lat="52.218394" lon="20.989037">
        <ele>115.582936</ele>
        <time>2026-03-31T09:20:48.341Z</time>
      </trkpt>
      <trkpt lat="52.218303" lon="20.988995">
        <ele>115.468204</ele>
        <time>2026-03-31T09:20:49.907Z</time>
      </trkpt>
      <trkpt lat="52.217689" lon="20.988713">
        <ele>114.694358</ele>
        <time>2026-03-31T09:20:58.445Z</time>
      </trkpt>
      <trkpt lat="52.217384" lon="20.988565">
        <ele>114.308320</ele>
        <time>2026-03-31T09:21:02.581Z</time>
      </trkpt>
      <trkpt lat="52.217209" lon="20.988470">
        <ele>114.089357</ele>
        <time>2026-03-31T09:21:04.992Z</time>
      </trkpt>
      <trkpt lat="52.216808" lon="20.988278">
        <ele>113.685936</ele>
        <time>2026-03-31T09:21:10.528Z</time>
      </trkpt>
      <trkpt lat="52.216687" lon="20.988027">
        <ele>113.497037</ele>
        <time>2026-03-31T09:21:13.318Z</time>
      </trkpt>
      <trkpt lat="52.216601" lon="20.987940">
        <ele>113.399362</ele>
        <time>2026-03-31T09:21:14.845Z</time>
      </trkpt>
      <trkpt lat="52.216560" lon="20.987801">
        <ele>113.308119</ele>
        <time>2026-03-31T09:21:16.329Z</time>
      </trkpt>
      <trkpt lat="52.216480" lon="20.987806">
        <ele>113.230834</ele>
        <time>2026-03-31T09:21:17.502Z</time>
      </trkpt>
      <trkpt lat="52.216423" lon="20.987826">
        <ele>113.174551</ele>
        <time>2026-03-31T09:21:18.379Z</time>
      </trkpt>
      <trkpt lat="52.216380" lon="20.987841">
        <ele>113.132103</ele>
        <time>2026-03-31T09:21:19.012Z</time>
      </trkpt>
      <trkpt lat="52.216270" lon="20.987856">
        <ele>113.025544</ele>
        <time>2026-03-31T09:21:20.637Z</time>
      </trkpt>
      <trkpt lat="52.216228" lon="20.987856">
        <ele>112.984999</ele>
        <time>2026-03-31T09:21:21.267Z</time>
      </trkpt>
      <trkpt lat="52.216154" lon="20.987858">
        <ele>112.913552</ele>
        <time>2026-03-31T09:21:22.393Z</time>
      </trkpt>
      <trkpt lat="52.216124" lon="20.987859">
        <ele>112.884585</ele>
        <time>2026-03-31T09:21:22.886Z</time>
      </trkpt>
      <trkpt lat="52.216060" lon="20.987942">
        <ele>112.805673</ele>
        <time>2026-03-31T09:21:24.178Z</time>
      </trkpt>
      <trkpt lat="52.216009" lon="20.987948">
        <ele>112.756312</ele>
        <time>2026-03-31T09:21:25.072Z</time>
      </trkpt>
      <trkpt lat="52.215885" lon="20.987963">
        <ele>112.636280</ele>
        <time>2026-03-31T09:21:27.289Z</time>
      </trkpt>
      <trkpt lat="52.215646" lon="20.987960">
        <ele>112.405552</ele>
        <time>2026-03-31T09:21:32.062Z</time>
      </trkpt>
      <trkpt lat="52.215511" lon="20.987975">
        <ele>112.432777</ele>
        <time>2026-03-31T09:21:34.734Z</time>
      </trkpt>
      <trkpt lat="52.215208" lon="20.988009">
        <ele>112.618029</ele>
        <time>2026-03-31T09:21:40.577Z</time>
      </trkpt>
      <trkpt lat="52.214105" lon="20.988134">
        <ele>113.292428</ele>
        <time>2026-03-31T09:22:03.401Z</time>
      </trkpt>
      <trkpt lat="52.213931" lon="20.988109">
        <ele>113.398970</ele>
        <time>2026-03-31T09:22:07.027Z</time>
      </trkpt>
      <trkpt lat="52.213653" lon="20.988141">
        <ele>113.428152</ele>
        <time>2026-03-31T09:22:12.617Z</time>
      </trkpt>
      <trkpt lat="52.213102" lon="20.988212">
        <ele>113.291583</ele>
        <time>2026-03-31T09:22:22.855Z</time>
      </trkpt>
      <trkpt lat="52.212490" lon="20.988227">
        <ele>113.140348</ele>
        <time>2026-03-31T09:22:32.875Z</time>
      </trkpt>
      <trkpt lat="52.210778" lon="20.987624">
        <ele>111.657152</ele>
        <time>2026-03-31T09:22:58.070Z</time>
      </trkpt>
      <trkpt lat="52.210585" lon="20.987643">
        <ele>111.450932</ele>
        <time>2026-03-31T09:23:01.023Z</time>
      </trkpt>
      <trkpt lat="52.210544" lon="20.987629">
        <ele>111.406256</ele>
        <time>2026-03-31T09:23:01.666Z</time>
      </trkpt>
      <trkpt lat="52.210483" lon="20.987602">
        <ele>111.338845</ele>
        <time>2026-03-31T09:23:02.693Z</time>
      </trkpt>
      <trkpt lat="52.210411" lon="20.987576">
        <ele>111.260196</ele>
        <time>2026-03-31T09:23:03.815Z</time>
      </trkpt>
      <trkpt lat="52.210375" lon="20.987563">
        <ele>111.220871</ele>
        <time>2026-03-31T09:23:04.408Z</time>
      </trkpt>
      <trkpt lat="52.210266" lon="20.987522">
        <ele>111.104619</ele>
        <time>2026-03-31T09:23:06.152Z</time>
      </trkpt>
      <trkpt lat="52.210222" lon="20.987506">
        <ele>111.089917</ele>
        <time>2026-03-31T09:23:06.883Z</time>
      </trkpt>
      <trkpt lat="52.210149" lon="20.987479">
        <ele>111.065504</ele>
        <time>2026-03-31T09:23:08.059Z</time>
      </trkpt>
      <trkpt lat="52.210071" lon="20.987482">
        <ele>111.040057</ele>
        <time>2026-03-31T09:23:09.307Z</time>
      </trkpt>
      <trkpt lat="52.210043" lon="20.987472">
        <ele>111.030708</ele>
        <time>2026-03-31T09:23:09.775Z</time>
      </trkpt>
      <trkpt lat="52.209952" lon="20.987441">
        <ele>111.000388</ele>
        <time>2026-03-31T09:23:11.227Z</time>
      </trkpt>
      <trkpt lat="52.209583" lon="20.987313">
        <ele>110.877349</ele>
        <time>2026-03-31T09:23:17.377Z</time>
      </trkpt>
      <trkpt lat="52.209494" lon="20.987314">
        <ele>110.848321</ele>
        <time>2026-03-31T09:23:18.855Z</time>
      </trkpt>
      <trkpt lat="52.209360" lon="20.987319">
        <ele>110.804605</ele>
        <time>2026-03-31T09:23:21.230Z</time>
      </trkpt>
      <trkpt lat="52.205569" lon="20.986020">
        <ele>110.282679</ele>
        <time>2026-03-31T09:24:25.142Z</time>
      </trkpt>
      <trkpt lat="52.205331" lon="20.985846">
        <ele>110.311960</ele>
        <time>2026-03-31T09:24:30.612Z</time>
      </trkpt>
      <trkpt lat="52.205280" lon="20.985831">
        <ele>110.317778</ele>
        <time>2026-03-31T09:24:31.728Z</time>
      </trkpt>
      <trkpt lat="52.205220" lon="20.985810">
        <ele>110.324668</ele>
        <time>2026-03-31T09:24:33.092Z</time>
      </trkpt>
      <trkpt lat="52.205150" lon="20.985797">
        <ele>110.332578</ele>
        <time>2026-03-31T09:24:34.464Z</time>
      </trkpt>
      <trkpt lat="52.205128" lon="20.985863">
        <ele>110.337748</ele>
        <time>2026-03-31T09:24:35.497Z</time>
      </trkpt>
      <trkpt lat="52.205116" lon="20.985954">
        <ele>110.344153</ele>
        <time>2026-03-31T09:24:36.652Z</time>
      </trkpt>
      <trkpt lat="52.205109" lon="20.986007">
        <ele>110.347883</ele>
        <time>2026-03-31T09:24:37.255Z</time>
      </trkpt>
      <trkpt lat="52.205072" lon="20.986291">
        <ele>110.351116</ele>
        <time>2026-03-31T09:24:40.830Z</time>
      </trkpt>
      <trkpt lat="52.205066" lon="20.986343">
        <ele>110.351371</ele>
        <time>2026-03-31T09:24:41.536Z</time>
      </trkpt>
      <trkpt lat="52.205061" lon="20.986390">
        <ele>110.351602</ele>
        <time>2026-03-31T09:24:42.170Z</time>
      </trkpt>
      <trkpt lat="52.205046" lon="20.986530">
        <ele>110.352289</ele>
        <time>2026-03-31T09:24:43.701Z</time>
      </trkpt>
      <trkpt lat="52.205015" lon="20.986520">
        <ele>110.352538</ele>
        <time>2026-03-31T09:24:44.377Z</time>
      </trkpt>
      <trkpt lat="52.204848" lon="20.986466">
        <ele>110.353880</ele>
        <time>2026-03-31T09:24:47.590Z</time>
      </trkpt>
      <trkpt lat="52.204609" lon="20.986386">
        <ele>110.355804</ele>
        <time>2026-03-31T09:24:51.902Z</time>
      </trkpt>
      <trkpt lat="52.204536" lon="20.986389">
        <ele>110.356379</ele>
        <time>2026-03-31T09:24:53.347Z</time>
      </trkpt>
      <trkpt lat="52.203275" lon="20.985950">
        <ele>110.246517</ele>
        <time>2026-03-31T09:25:14.142Z</time>
      </trkpt>
      <trkpt lat="52.202996" lon="20.985854">
        <ele>110.141395</ele>
        <time>2026-03-31T09:25:18.590Z</time>
      </trkpt>
      <trkpt lat="52.202684" lon="20.985747">
        <ele>110.023857</ele>
        <time>2026-03-31T09:25:23.619Z</time>
      </trkpt>
      <trkpt lat="52.201576" lon="20.985368">
        <ele>109.622714</ele>
        <time>2026-03-31T09:25:42.467Z</time>
      </trkpt>
      <trkpt lat="52.201245" lon="20.985254">
        <ele>109.519424</ele>
        <time>2026-03-31T09:25:47.703Z</time>
      </trkpt>
      <trkpt lat="52.201049" lon="20.985192">
        <ele>109.458465</ele>
        <time>2026-03-31T09:25:50.873Z</time>
      </trkpt>
      <trkpt lat="52.201014" lon="20.985180">
        <ele>109.447546</ele>
        <time>2026-03-31T09:25:51.452Z</time>
      </trkpt>
      <trkpt lat="52.200798" lon="20.985103">
        <ele>109.380039</ele>
        <time>2026-03-31T09:25:55.003Z</time>
      </trkpt>
      <trkpt lat="52.199348" lon="20.984606">
        <ele>109.081821</ele>
        <time>2026-03-31T09:26:19.395Z</time>
      </trkpt>
      <trkpt lat="52.199081" lon="20.984506">
        <ele>109.055721</ele>
        <time>2026-03-31T09:26:24.319Z</time>
      </trkpt>
      <trkpt lat="52.198791" lon="20.984434">
        <ele>109.027773</ele>
        <time>2026-03-31T09:26:29.309Z</time>
      </trkpt>
      <trkpt lat="52.198702" lon="20.984380">
        <ele>109.018726</ele>
        <time>2026-03-31T09:26:30.914Z</time>
      </trkpt>
      <trkpt lat="52.198607" lon="20.984338">
        <ele>109.009349</ele>
        <time>2026-03-31T09:26:32.618Z</time>
      </trkpt>
      <trkpt lat="52.198584" lon="20.984319">
        <ele>109.006892</ele>
        <time>2026-03-31T09:26:33.050Z</time>
      </trkpt>
      <trkpt lat="52.198536" lon="20.984312">
        <ele>109.002301</ele>
        <time>2026-03-31T09:26:33.899Z</time>
      </trkpt>
      <trkpt lat="52.198471" lon="20.984289">
        <ele>108.995964</ele>
        <time>2026-03-31T09:26:35.063Z</time>
      </trkpt>
      <trkpt lat="52.198407" lon="20.984267">
        <ele>108.989733</ele>
        <time>2026-03-31T09:26:36.174Z</time>
      </trkpt>
      <trkpt lat="52.198385" lon="20.984260">
        <ele>108.987597</ele>
        <time>2026-03-31T09:26:36.585Z</time>
      </trkpt>
      <trkpt lat="52.198334" lon="20.984247">
        <ele>108.982679</ele>
        <time>2026-03-31T09:26:37.500Z</time>
      </trkpt>
      <trkpt lat="52.198282" lon="20.984233">
        <ele>108.970250</ele>
        <time>2026-03-31T09:26:38.397Z</time>
      </trkpt>
      <trkpt lat="52.198208" lon="20.984209">
        <ele>108.943521</ele>
        <time>2026-03-31T09:26:39.741Z</time>
      </trkpt>
      <trkpt lat="52.198181" lon="20.984200">
        <ele>108.933758</ele>
        <time>2026-03-31T09:26:40.226Z</time>
      </trkpt>
      <trkpt lat="52.198146" lon="20.984188">
        <ele>108.921088</ele>
        <time>2026-03-31T09:26:40.829Z</time>
      </trkpt>
      <trkpt lat="52.197877" lon="20.984073">
        <ele>108.822572</ele>
        <time>2026-03-31T09:26:46.016Z</time>
      </trkpt>
      <trkpt lat="52.197088" lon="20.983825">
        <ele>108.537914</ele>
        <time>2026-03-31T09:27:00.709Z</time>
      </trkpt>
      <trkpt lat="52.195993" lon="20.983457">
        <ele>107.965502</ele>
        <time>2026-03-31T09:27:20.350Z</time>
      </trkpt>
      <trkpt lat="52.195945" lon="20.983441">
        <ele>107.932944</ele>
        <time>2026-03-31T09:27:21.149Z</time>
      </trkpt>
      <trkpt lat="52.195783" lon="20.983383">
        <ele>107.822723</ele>
        <time>2026-03-31T09:27:23.983Z</time>
      </trkpt>
      <trkpt lat="52.195739" lon="20.983367">
        <ele>107.792765</ele>
        <time>2026-03-31T09:27:24.800Z</time>
      </trkpt>
      <trkpt lat="52.194363" lon="20.982899">
        <ele>107.156775</ele>
        <time>2026-03-31T09:27:49.394Z</time>
      </trkpt>
      <trkpt lat="52.194345" lon="20.982876">
        <ele>107.157243</ele>
        <time>2026-03-31T09:27:49.853Z</time>
      </trkpt>
      <trkpt lat="52.194312" lon="20.982862">
        <ele>107.157940</ele>
        <time>2026-03-31T09:27:50.559Z</time>
      </trkpt>
      <trkpt lat="52.194247" lon="20.982832">
        <ele>107.159322</ele>
        <time>2026-03-31T09:27:51.613Z</time>
      </trkpt>
      <trkpt lat="52.194194" lon="20.982815">
        <ele>107.160426</ele>
        <time>2026-03-31T09:27:52.461Z</time>
      </trkpt>
      <trkpt lat="52.194130" lon="20.982793">
        <ele>107.161764</ele>
        <time>2026-03-31T09:27:53.584Z</time>
      </trkpt>
      <trkpt lat="52.194060" lon="20.982794">
        <ele>107.163196</ele>
        <time>2026-03-31T09:27:54.608Z</time>
      </trkpt>
      <trkpt lat="52.193663" lon="20.982653">
        <ele>107.171506</ele>
        <time>2026-03-31T09:28:02.579Z</time>
      </trkpt>
      <trkpt lat="52.193582" lon="20.982563">
        <ele>107.173510</ele>
        <time>2026-03-31T09:28:04.586Z</time>
      </trkpt>
      <trkpt lat="52.193433" lon="20.982432">
        <ele>107.176972</ele>
        <time>2026-03-31T09:28:07.905Z</time>
      </trkpt>
      <trkpt lat="52.192983" lon="20.982275">
        <ele>107.184661</ele>
        <time>2026-03-31T09:28:17.728Z</time>
      </trkpt>
      <trkpt lat="52.192819" lon="20.982219">
        <ele>107.184661</ele>
        <time>2026-03-31T09:28:22.067Z</time>
      </trkpt>
      <trkpt lat="52.191491" lon="20.981795">
        <ele>107.184661</ele>
        <time>2026-03-31T09:28:47.432Z</time>
      </trkpt>
      <trkpt lat="52.191355" lon="20.981857">
        <ele>107.184661</ele>
        <time>2026-03-31T09:28:50.249Z</time>
      </trkpt>
      <trkpt lat="52.191279" lon="20.981879">
        <ele>107.184661</ele>
        <time>2026-03-31T09:28:55.675Z</time>
      </trkpt>
      <trkpt lat="52.191169" lon="20.982295">
        <ele>107.184661</ele>
        <time>2026-03-31T09:29:14.967Z</time>
      </trkpt>
    </trkseg>
  </trk>
</gpx>